JY1SAT (JO-97)          
1 43803U 18099AX  26068.68634132  .00017774  00000+0  60804-3 0  9996
2 43803  97.4249 131.3625 0004723 256.6795 103.3919 15.30302628398390
STARLINK-30575          
1 58052U 23158B   26067.66667824  .00006698  00000+0  25285-3 0  9998
2 58052  43.0037  33.1816 0001738 277.6806 288.0882 15.27562199  5745
